[{"OBJECT_NAME":"STARLINK-5309","OBJECT_ID":"2023-010AT","EPOCH":"2026-03-09T23:30:49.083264","MEAN_MOTION":14.98327794,"ECCENTRICITY":0.00025319,"INCLINATION":70.0019,"RA_OF_ASC_NODE":3.8092,"ARG_OF_PERICENTER":272.8662,"MEAN_ANOMALY":87.2208,"EPHEMERIS_TYPE":0,"CLASSIFICATION_TYPE":"U","NORAD_CAT_ID":55310,"ELEMENT_SET_NO":999,"REV_AT_EPOCH":17381,"BSTAR":-6.3457602e-5,"MEAN_MOTION_DOT":-8.5e-6,"MEAN_MOTION_DDOT":0},{"OBJECT_NAME":"PEGASUS DEB","OBJECT_ID":"1994-029LN","EPOCH":"2026-03-09T13:32:28.639104","MEAN_MOTION":14.7969053,"ECCENTRICITY":0.014325,"INCLINATION":81.5077,"RA_OF_ASC_NODE":265.5669,"ARG_OF_PERICENTER":165.8227,"MEAN_ANOMALY":194.7072,"EPHEMERIS_TYPE":0,"CLASSIFICATION_TYPE":"U","NORAD_CAT_ID":24239,"ELEMENT_SET_NO":999,"REV_AT_EPOCH":56152,"BSTAR":0.0015079,"MEAN_MOTION_DOT":0.00013522,"MEAN_MOTION_DDOT":0}]
